STARLINK-3617           
1 51780U 22017N   22130.00001157 -.00718008  00000+0 -21715-1 0  9997
2 51780  53.2175 144.2298 0001839  38.8771 207.2130 15.36204283 12788
STARLINK-3580           
1 51781U 22017P   22130.00001157 -.00718103  00000+0 -21957-1 0  9992
2 51781  53.2174 144.2163 0001741  43.7973 189.1248 15.35866495 12742
STARLINK-3616           
1 51782U 22017Q   22130.00001157  .00037906  00000+0  23881-2 0  9995
2 51782  53.2128 152.5718 0001728  52.0669 226.2955 15.08822999 12615
STARLINK-3628           
1 51783U 22017R   22130.00001157 -.00718052  00000+0 -21818-1 0  9993
2 51783  53.2174 144.2240 0001817  40.3088 200.2426 15.36060177 12730
STARLINK-3632           
1 51784U 22017S   22130.00001157  .00041373  00000+0  26035-2 0  9994
2 51784  53.2141 152.5722 0001936  43.0262 255.3203 15.08824056 12623
STARLINK-3646           
1 51785U 22017T   22130.00001157 -.00717873  00000+0 -21680-1 0  9992
2 51785  53.2175 144.2310 0001666  46.1465 202.2549 15.36249012 12786
STARLINK-3638           
1 51786U 22017U   22130.33334491 -.00013560  00000+0 -83504-3 0  9996
2 51786  53.2148 151.0762 0002063  37.2668 312.6707 15.08856407 12718
STARLINK-3619           
1 51787U 22017V   22130.00001157  .00037762  00000+0  23785-2 0  9993
2 51787  53.2140 152.5721 0002097  49.8393 208.5276 15.08832780 12614
STARLINK-3641           
1 51788U 22017W   22130.00001157  .00043227  00000+0  27176-2 0  9995
2 51788  53.2173 152.5561 0001903  48.5350 349.8095 15.08838345 12618
STARLINK-3639           
1 51789U 22017X   22130.00001157  .00043056  00000+0  27082-2 0  9992
2 51789  53.2134 152.5713 0002116  52.5069 265.8069 15.08822230 12629
STARLINK-3631           
1 51790U 22017Y   22130.00001157  .00041378  00000+0  26055-2 0  9998
2 51790  53.2181 152.5554 0001885  51.8436   6.5363 15.08800824 12664
STARLINK-3602           
1 51791U 22017Z   22130.00001157  .00044165  00000+0  27758-2 0  9997
2 51791  53.2152 152.5611 0001956  43.4782 314.8486 15.08838891 12618
STARLINK-3626           
1 51792U 22017AA  22130.00001157  .00036598  00000+0  23082-2 0  9995
2 51792  53.2206 152.5555 0001973  50.5005  47.8675 15.08799423 12667
STARLINK-3633           
1 51793U 22017AB  22129.91667824  .00046521  00000+0  29250-2 0  9993
2 51793  53.2160 152.9308 0001704  44.7512 240.7594 15.08801125  3620
STARLINK-3573           
1 51794U 22017AC  22129.91667824  .00044022  00000+0  27702-2 0  9998
2 51794  53.2188 152.9291 0001983  55.8089 349.7053 15.08795456  3622
STARLINK-3586           
1 51795U 22017AD  22130.00001157  .00040695  00000+0  25630-2 0  9992
2 51795  53.2185 152.5552 0001622  53.6636  64.7235 15.08801651 12610
STARLINK-3630           
1 51796U 22017AE  22130.16667824 -.00025756  00000+0 -16052-2 0  9990
2 51796  53.2133 151.8242 0001879  43.0663 341.0944 15.08855758 12636
STARLINK-3627           
1 51797U 22017AF  22130.16667824 -.00019019  00000+0 -11801-2 0  9993
2 51797  53.2192 151.8075 0001796  50.0348 214.1160 15.08836305 12695
STARLINK-3634           
1 51798U 22017AG  22130.16667824 -.00025418  00000+0 -15836-2 0  9996
2 51798  53.2128 151.8245 0001862  43.7735   0.3896 15.08860880 12682
STARLINK-3637           
1 51799U 22017AH  22130.16667824 -.00024443  00000+0 -15229-2 0  9990
2 51799  53.2186 151.8074 0001841  51.4129 292.7501 15.08838559 12641
STARLINK-3600           
1 51800U 22017AJ  22129.91667824  .00041172  00000+0  25918-2 0  9996
2 51800  53.2122 152.9458 0002102  51.7784 108.5289 15.08813529  3628
STARLINK-3592           
1 51801U 22017AK  22130.41667824  .00017284  00000+0  11015-2 0  9994
2 51801  53.2128 150.7061 0001854  28.4174 254.4096 15.08837032 12686
STARLINK-3557           
1 51802U 22017AL  22130.16667824 -.00019498  00000+0 -12094-2 0  9996
2 51802  53.2191 151.8078 0001992  48.8913 210.0222 15.08866378 12647
STARLINK-3544           
1 51803U 22017AM  22129.91667824  .00009040  00000+0  58534-3 0  9998
2 51803  53.2121 152.9453 0001881  46.4981  99.0349 15.08840186  3628
STARLINK-3601           
1 51804U 22017AN  22129.91667824 -.00716954  00000+0 -74704-2 0  9996
2 51804  53.2174 141.0957 0001143  60.5330  29.1205 15.66109924  3695
STARLINK-3605           
1 51805U 22017AP  22129.91667824 -.00716729  00000+0 -74643-2 0  9999
2 51805  53.2172 141.0223 0001137  59.9865  18.7681 15.66121701  3697
STARLINK-3581           
1 51806U 22017AQ  22130.41667824 -.00700842  00000+0 -21227-1 0  9995
2 51806  53.2176 142.2959 0001582  44.6763  17.0264 15.36100707 12793
STARLINK-3606           
1 51807U 22017AR  22130.41667824 -.00703170  00000+0 -21573-1 0  9997
2 51807  53.2176 142.2809 0001616  43.6336   3.0358 15.35710622 12848
STARLINK-3609           
1 51808U 22017AS  22130.16667824 -.00719075  00000+0 -21269-1 0  9993
2 51808  53.2177 143.4801 0002127  28.9446 103.3515 15.36891614 12752
STARLINK-3607           
1 51809U 22017AT  22130.00001157 -.00717232  00000+0 -21445-1 0  9997
2 51809  53.2175 144.2358 0001591  49.0728 219.3825 15.36556069 12730
STARLINK-3613           
1 51810U 22017AU  22129.91667824 -.00716962  00000+0 -74729-2 0  9999
2 51810  53.2173 141.0569 0001097  66.7783  17.3704 15.66102312  3695
STARLINK-3569           
1 51811U 22017AV  22130.16667824 -.00719703  00000+0 -21427-1 0  9991
2 51811  53.2177 143.4723 0001948  34.1057  91.2160 15.36694095 12751
STARLINK-3610           
1 51812U 22017AW  22130.16667824 -.00719049  00000+0 -76109-2 0  9993
2 51812  53.2176 139.8490 0001323  47.4283   7.5548 15.65726343 12806
STARLINK-3552           
1 51813U 22017AX  22130.16667824 -.00718947  00000+0 -76130-2 0  9994
2 51813  53.2177 139.7916 0001298  48.3281   5.2316 15.65715862 12801
STARLINK-3599           
1 51814U 22017AY  22130.16667824 -.00719137  00000+0 -76092-2 0  9994
2 51814  53.2176 139.8558 0001322  47.5682   8.8403 15.65735169 12806
STARLINK-3604           
1 51815U 22017AZ  22130.16667824 -.00718737  00000+0 -76064-2 0  9999
2 51815  53.2177 139.8524 0001172  56.2607 359.4352 15.65730433 12805
STARLINK-3603           
1 51816U 22017BA  22130.16667824 -.00719255  00000+0 -76093-2 0  9998
2 51816  53.2176 139.8592 0001280  51.0706   6.0504 15.65739617 12855
STARLINK-3596           
1 51817U 22017BB  22130.03255769  .00000074  00000+0  45289-5 0  9992
2 51817  53.2153 136.1461 0008538 282.1390  77.8675 15.76731166 12842
L-SAR 01B               
1 51822U 22018A   22130.23150007 -.00000364  00000+0 -33384-4 0  9996
2 51822  97.8087 138.1413 0001572  83.2261 276.9146 14.88411902 10742
2022-019A               
1 51824U 22019A   22130.27578941  .00003933  00000+0  25060-3 0  9998
2 51824  97.5121 205.5904 0020984  27.9008  57.7710 15.09142094 10880
2022-019B               
1 51825U 22019B   22130.26487666  .00003215  00000+0  20476-3 0  9990
2 51825  97.5117 205.5934 0019086  25.3755  59.4028 15.09322671 10872
2022-019C               
1 51826U 22019C   22130.11602005  .00003830  00000+0  24103-3 0  9995
2 51826  97.5111 205.4661 0018433  27.7584  33.9787 15.09653013 10858
2022-019D               
1 51827U 22019D   22130.24995650  .00003045  00000+0  19292-3 0  9992
2 51827  97.5124 205.6179 0017333  26.6900  46.1791 15.09581620 10874
2022-019E               
1 51828U 22019E   22130.30556997  .00003881  00000+0  24336-3 0  9990
2 51828  97.5114 205.6788 0018102  27.7406  12.3849 15.09779690 10884
2022-019F               
1 51829U 22019F   22130.15686366  .00006144  00000+0  37932-3 0  9999
2 51829  97.5166 205.5947 0017181  29.2606 330.9582 15.10132633 10866
2022-019G               
1 51830U 22019G   22130.15698827  .00005873  00000+0  36273-3 0  9991
2 51830  97.5103 205.5308 0017591  27.6154 332.6006 15.10130062 10869
2022-019H               
1 51831U 22019H   22130.11359310  .00003495  00000+0  21972-3 0  9997
2 51831  97.5123 205.4976 0019269  35.6116  53.4818 15.09733249 10855
2022-019J               
1 51832U 22019J   22130.11721975  .00003116  00000+0  19814-3 0  9990
2 51832  97.5116 205.4837 0011929  36.0273  50.6677 15.09484918 10856
2022-019K               
1 51833U 22019K   22130.29112257  .00005240  00000+0  32251-3 0  9997
2 51833  97.5102 205.6955 0016291  30.9866  56.0953 15.10328614 10885
2022-019L               
1 51834U 22019L   22130.29682031  .00003902  00000+0  24274-3 0  9999
2 51834  97.5120 205.7231 0017656  32.6633  57.6079 15.10071942 10886
2022-019M               
1 51835U 22019M   22130.09786682  .00003932  00000+0  24453-3 0  9997
2 51835  97.5121 205.5186 0017607  34.0861  57.0381 15.10083359 10852
2022-019N               
1 51836U 22019N   22130.08693544  .00006794  00000+0  41399-3 0  9998
2 51836  97.5116 205.5280 0016492  33.9737  59.1547 15.10579955 10852
2022-019P               
1 51837U 22019P   22130.27681943  .00006365  00000+0  38651-3 0  9991
2 51837  97.5072 205.6899 0016412  37.2768  50.8460 15.10734791 10880
2022-019Q               
1 51838U 22019Q   22130.28129637  .00004383  00000+0  26961-3 0  9999
2 51838  97.5118 205.7324 0016076  34.9302  51.9569 15.10443774 10880
2022-019R               
1 51839U 22019R   22130.40698008  .00004430  00000+0  27174-3 0  9997
2 51839  97.5113 205.8478 0015718  35.0002  27.1965 15.10541798 10901
2022-019S               
1 51840U 22019S   22130.14000593  .00004429  00000+0  27156-3 0  9994
2 51840  97.5124 205.5987 0015591  34.3634  23.6914 15.10562243 10867
2022-019T               
1 51841U 22019T   22130.27473882  .00004372  00000+0  26764-3 0  9995
2 51841  97.5112 205.7319 0015262  32.9170  52.6169 15.10628058 10883
2022-019U               
1 51842U 22019U   22130.28473653  .00005316  00000+0  21455-3 0  9994
2 51842  97.5586 207.5606 0068540 322.8531 122.6524 15.23067742 10971
2022-019V               
1 51843U 22019V   22130.14122927  .00003833  00000+0  23658-3 0  9994
2 51843  97.5153 205.6268 0016603  39.5358  19.0773 15.10385738 10864
